{
"type": "FeatureCollection",
"name": "uk_eez",
"description": "UK EEZ with 1 dp resolution geometry",
"crs": { "type": "name", "properties": { "name": "urn:ogc:def:crs:OGC:1.3:CRS84" } },
"features": [
{ "type": "Feature", "properties": { }, "geometry": { "type": "MultiLineString", "coordinates": [ [ [ 1.3, 50.8 ], [ 0.6, 50.3 ], [ -2.1, 50.2 ], [ -9.6, 48.1 ], [ -9.9, 47.4 ], [ -10.1, 47.6 ], [ -10.8, 48.2 ], [ -9.9, 48.2 ], [ -9.8, 48.5 ], [ -9.4, 48.5 ], [ -9.2, 49.3 ], [ -8.8, 49.5 ], [ -8.4, 50.2 ], [ -7.2, 50.7 ], [ -5.4, 52.4 ], [ -5.3, 53.7 ], [ -5.8, 53.9 ] ], [ [ 1.9, 51.2 ], [ 3.2, 52.6 ], [ 2.8, 54.4 ], [ 3.4, 55.8 ], [ 1.5, 58.4 ], [ 2.1, 59.9 ], [ 1.8, 61.4 ], [ -0.5, 63.9 ], [ -4.7, 60.4 ], [ -9.7, 60.0 ], [ -13.3, 60.2 ], [ -14.8, 58.7 ], [ -14.9, 57.6 ], [ -14.3, 56.6 ], [ -12.2, 56.7 ], [ -9.1, 56.4 ], [ -7.4, 56.0 ], [ -6.7, 55.4 ] ] ] } }
]
}
